{
  "type": "FeatureCollection",
  "features": [
    {
      "type": "Feature",
      "geometry": { "type": "Point", "coordinates": [-97.7575, 30.2672] },
      "properties": {
        "title": "Lady Bird Lake (Austin)",
        "description": "Urban reservoir; popular for kayak and bank fishing. Check City of Austin angler rules.",
        "species": ["largemouth bass", "sunfish", "catfish"],
        "access_type": "bank / paddle",
        "source": "seed"
      }
    },
    {
      "type": "Feature",
      "geometry": { "type": "Point", "coordinates": [-96.797, 32.777] },
      "properties": {
        "title": "White Rock Lake (Dallas)",
        "description": "City-managed lake with bank access and piers; verify local park hours.",
        "species": ["largemouth bass", "crappie", "catfish"],
        "access_type": "bank / pier",
        "source": "seed"
      }
    },
    {
      "type": "Feature",
      "geometry": { "type": "Point", "coordinates": [-95.3698, 29.7604] },
      "properties": {
        "title": "Galveston Bay area",
        "description": "Saltwater and brackish options; check TPWD saltwater regulations and access sites.",
        "species": ["red drum", "speckled trout", "flounder"],
        "access_type": "pier / wade / boat",
        "source": "seed"
      }
    },
    {
      "type": "Feature",
      "geometry": { "type": "Point", "coordinates": [-98.5795, 29.4241] },
      "properties": {
        "title": "Guadalupe River (New Braunfels vicinity)",
        "description": "Trout stocking possible in winter below Canyon Dam; summer rules differ—confirm TPWD Outdoor Annual.",
        "species": ["rainbow trout", "smallmouth bass", "catfish"],
        "access_type": "wade / bank",
        "source": "seed"
      }
    },
    {
      "type": "Feature",
      "geometry": { "type": "Point", "coordinates": [-101.8313, 35.222] },
      "properties": {
        "title": "Lake Meredith (Panhandle)",
        "description": "National Recreation Area; multiple access points—verify NPS and TPWD rules.",
        "species": ["walleye", "smallmouth bass", "catfish"],
        "access_type": "boat / bank",
        "source": "seed"
      }
    }
  ]
}
